CCSDS_OMM_VERS = 2.0
CREATION_DATE  = 
ORIGINATOR     = 

OBJECT_NAME    = ISS OBJECT YC
OBJECT_ID      = 1998-067YC
CENTER_NAME    = EARTH
REF_FRAME      = TEME
TIME_SYSTEM    = UTC
MEAN_ELEMENT_THEORY = SGP/SGP4

EPOCH          = 2026-02-10T11:12:15.560064
MEAN_MOTION    = 15.49834387
ECCENTRICITY   = .0007747
INCLINATION    = 51.6308
RA_OF_ASC_NODE = 206.8743
ARG_OF_PERICENTER = 71.3076
MEAN_ANOMALY   = 288.8753

EPHEMERIS_TYPE = 0
CLASSIFICATION_TYPE = U
NORAD_CAT_ID   = 67686
ELEMENT_SET_NO = 999
REV_AT_EPOCH   = 56
BSTAR          = .84889E-3
MEAN_MOTION_DOT = .48049E-3
MEAN_MOTION_DDOT = 0

CCSDS_OMM_VERS = 2.0
CREATION_DATE  = 
ORIGINATOR     = 

OBJECT_NAME    = LEOPARD
OBJECT_ID      = 1998-067YD
CENTER_NAME    = EARTH
REF_FRAME      = TEME
TIME_SYSTEM    = UTC
MEAN_ELEMENT_THEORY = SGP/SGP4

EPOCH          = 2026-02-10T11:12:48.556224
MEAN_MOTION    = 15.49681131
ECCENTRICITY   = .000784
INCLINATION    = 51.6309
RA_OF_ASC_NODE = 206.8762
ARG_OF_PERICENTER = 72.9248
MEAN_ANOMALY   = 287.2599

EPHEMERIS_TYPE = 0
CLASSIFICATION_TYPE = U
NORAD_CAT_ID   = 67687
ELEMENT_SET_NO = 999
REV_AT_EPOCH   = 48
BSTAR          = .67906E-3
MEAN_MOTION_DOT = .38088E-3
MEAN_MOTION_DDOT = 0

CCSDS_OMM_VERS = 2.0
CREATION_DATE  = 
ORIGINATOR     = 

OBJECT_NAME    = ISS OBJECT YE
OBJECT_ID      = 1998-067YE
CENTER_NAME    = EARTH
REF_FRAME      = TEME
TIME_SYSTEM    = UTC
MEAN_ELEMENT_THEORY = SGP/SGP4

EPOCH          = 2026-02-10T11:12:20.750976
MEAN_MOTION    = 15.49794693
ECCENTRICITY   = .0007721
INCLINATION    = 51.6310
RA_OF_ASC_NODE = 206.8749
ARG_OF_PERICENTER = 71.3423
MEAN_ANOMALY   = 288.8403

EPHEMERIS_TYPE = 0
CLASSIFICATION_TYPE = U
NORAD_CAT_ID   = 67688
ELEMENT_SET_NO = 999
REV_AT_EPOCH   = 48
BSTAR          = .78362E-3
MEAN_MOTION_DOT = .44235E-3
MEAN_MOTION_DDOT = 0

CCSDS_OMM_VERS = 2.0
CREATION_DATE  = 
ORIGINATOR     = 

OBJECT_NAME    = PRC TEST SPACECRAFT 4
OBJECT_ID      = 2026-024A
CENTER_NAME    = EARTH
REF_FRAME      = TEME
TIME_SYSTEM    = UTC
MEAN_ELEMENT_THEORY = SGP/SGP4

EPOCH          = 2026-02-10T11:19:09.503328
MEAN_MOTION    = 15.31905308
ECCENTRICITY   = .017765
INCLINATION    = 49.9880
RA_OF_ASC_NODE = 151.0116
ARG_OF_PERICENTER = 162.0456
MEAN_ANOMALY   = 198.6886

EPHEMERIS_TYPE = 0
CLASSIFICATION_TYPE = U
NORAD_CAT_ID   = 67689
ELEMENT_SET_NO = 999
REV_AT_EPOCH   = 51
BSTAR          = .131E-3
MEAN_MOTION_DOT = .6278E-4
MEAN_MOTION_DDOT = 0

CCSDS_OMM_VERS = 2.0
CREATION_DATE  = 
ORIGINATOR     = 

OBJECT_NAME    = CZ-2F R/B
OBJECT_ID      = 2026-024B
CENTER_NAME    = EARTH
REF_FRAME      = TEME
TIME_SYSTEM    = UTC
MEAN_ELEMENT_THEORY = SGP/SGP4

EPOCH          = 2026-02-09T18:04:37.386336
MEAN_MOTION    = 15.33080913
ECCENTRICITY   = .017874
INCLINATION    = 49.9890
RA_OF_ASC_NODE = 154.5891
ARG_OF_PERICENTER = 159.3290
MEAN_ANOMALY   = 201.5018

EPHEMERIS_TYPE = 0
CLASSIFICATION_TYPE = U
NORAD_CAT_ID   = 67690
ELEMENT_SET_NO = 999
REV_AT_EPOCH   = 40
BSTAR          = .19082E-3
MEAN_MOTION_DOT = .9918E-4
MEAN_MOTION_DDOT = 0

CCSDS_OMM_VERS = 2.0
CREATION_DATE  = 
ORIGINATOR     = 

OBJECT_NAME    = CZ-2F DEB
OBJECT_ID      = 2026-024C
CENTER_NAME    = EARTH
REF_FRAME      = TEME
TIME_SYSTEM    = UTC
MEAN_ELEMENT_THEORY = SGP/SGP4

EPOCH          = 2026-02-09T18:39:24.680736
MEAN_MOTION    = 15.58953928
ECCENTRICITY   = .02847379
INCLINATION    = 49.9061
RA_OF_ASC_NODE = 154.0414
ARG_OF_PERICENTER = 164.9294
MEAN_ANOMALY   = 196.0383

EPHEMERIS_TYPE = 0
CLASSIFICATION_TYPE = U
NORAD_CAT_ID   = 67691
ELEMENT_SET_NO = 999
REV_AT_EPOCH   = 41
BSTAR          = .31794089E-3
MEAN_MOTION_DOT = .21904E-2
MEAN_MOTION_DDOT = .10249358E-4

CCSDS_OMM_VERS = 2.0
CREATION_DATE  = 
ORIGINATOR     = 

OBJECT_NAME    = CZ-2F DEB
OBJECT_ID      = 2026-024D
CENTER_NAME    = EARTH
REF_FRAME      = TEME
TIME_SYSTEM    = UTC
MEAN_ELEMENT_THEORY = SGP/SGP4

EPOCH          = 2026-02-09T12:20:49.161696
MEAN_MOTION    = 15.62132248
ECCENTRICITY   = .03476599
INCLINATION    = 50.3761
RA_OF_ASC_NODE = 155.8636
ARG_OF_PERICENTER = 202.7642
MEAN_ANOMALY   = 155.7595

EPHEMERIS_TYPE = 0
CLASSIFICATION_TYPE = U
NORAD_CAT_ID   = 67692
ELEMENT_SET_NO = 999
REV_AT_EPOCH   = 36
BSTAR          = .16462978E-3
MEAN_MOTION_DOT = .1037071E-1
MEAN_MOTION_DDOT = .10166112E-4

CCSDS_OMM_VERS = 2.0
CREATION_DATE  = 
ORIGINATOR     = 

OBJECT_NAME    = CZ-2F DEB
OBJECT_ID      = 2026-024E
CENTER_NAME    = EARTH
REF_FRAME      = TEME
TIME_SYSTEM    = UTC
MEAN_ELEMENT_THEORY = SGP/SGP4

EPOCH          = 2026-02-09T14:10:52.212576
MEAN_MOTION    = 15.12539689
ECCENTRICITY   = .02725957
INCLINATION    = 50.3188
RA_OF_ASC_NODE = 155.5286
ARG_OF_PERICENTER = 169.4093
MEAN_ANOMALY   = 191.2765

EPHEMERIS_TYPE = 0
CLASSIFICATION_TYPE = U
NORAD_CAT_ID   = 67718
ELEMENT_SET_NO = 999
REV_AT_EPOCH   = 36
BSTAR          = .47189619E-3
MEAN_MOTION_DOT = .20885E-3
MEAN_MOTION_DDOT = 0

CCSDS_OMM_VERS = 2.0
CREATION_DATE  = 
ORIGINATOR     = 

OBJECT_NAME    = CZ-2F DEB
OBJECT_ID      = 2026-024G
CENTER_NAME    = EARTH
REF_FRAME      = TEME
TIME_SYSTEM    = UTC
MEAN_ELEMENT_THEORY = SGP/SGP4

EPOCH          = 2026-02-09T13:23:37.087296
MEAN_MOTION    = 14.91513523
ECCENTRICITY   = .0356521
INCLINATION    = 49.8307
RA_OF_ASC_NODE = 156.3970
ARG_OF_PERICENTER = 155.6766
MEAN_ANOMALY   = 206.1473

EPHEMERIS_TYPE = 0
CLASSIFICATION_TYPE = U
NORAD_CAT_ID   = 67720
ELEMENT_SET_NO = 999
REV_AT_EPOCH   = 34
BSTAR          = .51552E-2
MEAN_MOTION_DOT = .189924E-2
MEAN_MOTION_DDOT = 0

